{"type": "FeatureCollection", "features": [ {"type": "Feature", "properties": {"norad_id": 38953, "name": "BEIDOU-2 G6 (C02)", "group": "beidou", "lat": 2.971483940704923, "lon": 123.41908201295976, "alt_km": 35801.50540722913, "timestamp": "2025-12-19T20:43:00.350668+00:00", "meta": {"OBJECT_NAME": "BEIDOU-2 G6 (C02)", "OBJECT_ID": "2012-059A", "EPOCH": "2025-12-19T01:33:51.789600", "MEAN_MOTION": 1.00269092, "ECCENTRICITY": 0.00082571, "INCLINATION": 3.9642, "RA_OF_ASC_NODE": 75.4471, "ARG_OF_PERICENTER": 292.1855, "MEAN_ANOMALY": 187.7113, "EPHEMERIS_TYPE": 0, "CLASSIFICATION_TYPE": "U", "NORAD_CAT_ID": 38953, "ELEMENT_SET_NO": 999, "REV_AT_EPOCH": 4810, "BSTAR": 0, "MEAN_MOTION_DOT": -1.53e-06, "MEAN_MOTION_DDOT": 0}, "tle": {"line1": "1 38953U 12059A   25353.06518275 -.00000153  00000+0  00000+0 0  9995", "line2": "2 38953   3.9642  75.4471 0008257 292.1855 187.7113  1.00269092 48106"}}, "geometry": {"type": "Point", "coordinates": [123.41908201295976, 2.971483940704923]}}, {"type": "Feature", "properties": {"norad_id": 40549, "name": "BEIDOU-3S IGSO-1S (C31)", "group": "beidou", "lat": -12.387484525225378, "lon": 128.37008872431824, "alt_km": 35629.86354785004, "timestamp": "2025-12-19T20:43:00.350681+00:00", "meta": {"OBJECT_NAME": "BEIDOU-3S IGSO-1S (C31)", "OBJECT_ID": "2015-019A", "EPOCH": "2025-12-18T19:55:38.829792", "MEAN_MOTION": 1.00292047, "ECCENTRICITY": 0.0036331, "INCLINATION": 49.5404, "RA_OF_ASC_NODE": 297.6395, "ARG_OF_PERICENTER": 194.0028, "MEAN_ANOMALY": 349.3621, "EPHEMERIS_TYPE": 0, "CLASSIFICATION_TYPE": "U", "NORAD_CAT_ID": 40549, "ELEMENT_SET_NO": 999, "REV_AT_EPOCH": 3926, "BSTAR": 0, "MEAN_MOTION_DOT": -1.83e-06, "MEAN_MOTION_DDOT": 0}, "tle": {"line1": "1 40549U 15019A   25352.83031053 -.00000183  00000+0  00000+0 0  9999", "line2": "2 40549  49.5404 297.6395 0036331 194.0028 349.3621  1.00292047 39264"}}, "geometry": {"type": "Point", "coordinates": [128.37008872431824, -12.387484525225378]}}, {"type": "Feature", "properties": {"norad_id": 40748, "name": "BEIDOU-3S M2S (C58)", "group": "beidou", "lat": -53.713080659353594, "lon": -124.02975574789832, "alt_km": 21500.390710326275, "timestamp": "2025-12-19T20:43:00.350692+00:00", "meta": {"OBJECT_NAME": "BEIDOU-3S M2S (C58)", "OBJECT_ID": "2015-037A", "EPOCH": "2025-12-11T22:15:26.437248", "MEAN_MOTION": 1.8622897, "ECCENTRICITY": 0.00123447, "INCLINATION": 55.0397, "RA_OF_ASC_NODE": 308.4912, "ARG_OF_PERICENTER": 267.8245, "MEAN_ANOMALY": 92.025, "EPHEMERIS_TYPE": 0, "CLASSIFICATION_TYPE": "U", "NORAD_CAT_ID": 40748, "ELEMENT_SET_NO": 999, "REV_AT_EPOCH": 7063, "BSTAR": 0, "MEAN_MOTION_DOT": -8.9e-07, "MEAN_MOTION_DDOT": 0}, "tle": {"line1": "1 40748U 15037A   25345.92738932 -.00000089  00000+0  00000+0 0  9997", "line2": "2 40748  55.0397 308.4912 0012344 267.8245  92.0250  1.86228970 70636"}}, "geometry": {"type": "Point", "coordinates": [-124.02975574789832, -53.713080659353594]}}, {"type": "Feature", "properties": {"norad_id": 40749, "name": "BEIDOU-3S M1S (C57)", "group": "beidou", "lat": 40.95488553646726, "lon": 90.81948110815061, "alt_km": 21526.754136491738, "timestamp": "2025-12-19T20:43:00.350704+00:00", "meta": {"OBJECT_NAME": "BEIDOU-3S M1S (C57)", "OBJECT_ID": "2015-037B", "EPOCH": "2025-12-18T01:31:18.410592", "MEAN_MOTION": 1.86254045, "ECCENTRICITY": 0.00035849, "INCLINATION": 55.0306, "RA_OF_ASC_NODE": 308.2705, "ARG_OF_PERICENTER": 0.3009, "MEAN_ANOMALY": 359.6859, "EPHEMERIS_TYPE": 0, "CLASSIFICATION_TYPE": "U", "NORAD_CAT_ID": 40749, "ELEMENT_SET_NO": 999, "REV_AT_EPOCH": 7075, "BSTAR": 0, "MEAN_MOTION_DOT": -8.6e-07, "MEAN_MOTION_DDOT": 0}, "tle": {"line1": "1 40749U 15037B   25352.06340753 -.00000086  00000+0  00000+0 0  9998", "line2": "2 40749  55.0306 308.2705 0003584   0.3009 359.6859  1.86254045 70751"}}, "geometry": {"type": "Point", "coordinates": [90.81948110815061, 40.95488553646726]}}, {"type": "Feature", "properties": {"norad_id": 40938, "name": "BEIDOU-3S IGSO-2S (C56)", "group": "beidou", "lat": -38.476648280537496, "lon": 123.58687765767999, "alt_km": 35614.11019099225, "timestamp": "2025-12-19T20:43:00.350722+00:00", "meta": {"OBJECT_NAME": "BEIDOU-3S IGSO-2S (C56)", "OBJECT_ID": "2015-053A", "EPOCH": "2025-12-18T17:10:26.885280", "MEAN_MOTION": 1.00268888, "ECCENTRICITY": 0.00604928, "INCLINATION": 49.5013, "RA_OF_ASC_NODE": 260.935, "ARG_OF_PERICENTER": 188.6507, "MEAN_ANOMALY": 351.508, "EPHEMERIS_TYPE": 0, "CLASSIFICATION_TYPE": "U", "NORAD_CAT_ID": 40938, "ELEMENT_SET_NO": 999, "REV_AT_EPOCH": 3754, "BSTAR": 0, "MEAN_MOTION_DOT": -1.17e-06, "MEAN_MOTION_DDOT": 0}, "tle": {"line1": "1 40938U 15053A   25352.71558895 -.00000117  00000+0  00000+0 0  9991", "line2": "2 40938  49.5013 260.9350 0060492 188.6507 351.5080  1.00268888 37541"}}, "geometry": {"type": "Point", "coordinates": [123.58687765767999, -38.476648280537496]}}, {"type": "Feature", "properties": {"norad_id": 41434, "name": "BEIDOU-2 IGSO-6 (C13)", "group": "beidou", "lat": 59.891763157640824, "lon": 134.7507788916691, "alt_km": 35965.11461956466, "timestamp": "2025-12-19T20:43:00.350734+00:00", "meta": {"OBJECT_NAME": "BEIDOU-2 IGSO-6 (C13)", "OBJECT_ID": "2016-021A", "EPOCH": "2025-12-18T14:33:38.837664", "MEAN_MOTION": 1.00292299, "ECCENTRICITY": 0.00610054, "INCLINATION": 59.9732, "RA_OF_ASC_NODE": 39.8392, "ARG_OF_PERICENTER": 230.2031, "MEAN_ANOMALY": 129.1398, "EPHEMERIS_TYPE": 0, "CLASSIFICATION_TYPE": "U", "NORAD_CAT_ID": 41434, "ELEMENT_SET_NO": 999, "REV_AT_EPOCH": 3566, "BSTAR": 0, "MEAN_MOTION_DOT": -1.41e-06, "MEAN_MOTION_DDOT": 0}, "tle": {"line1": "1 41434U 16021A   25352.60669951 -.00000141  00000+0  00000+0 0  9990", "line2": "2 41434  59.9732  39.8392 0061005 230.2031 129.1398  1.00292299 35667"}}, "geometry": {"type": "Point", "coordinates": [134.7507788916691, 59.891763157640824]}}, {"type": "Feature", "properties": {"norad_id": 41586, "name": "BEIDOU-2 G7 (C03)", "group": "beidou", "lat": 1.7691516365057784, "lon": 149.95827685338676, "alt_km": 35781.621186756, "timestamp": "2025-12-19T20:43:00.350747+00:00", "meta": {"OBJECT_NAME": "BEIDOU-2 G7 (C03)", "OBJECT_ID": "2016-037A", "EPOCH": "2025-12-19T01:48:17.629920", "MEAN_MOTION": 1.00272235, "ECCENTRICITY": 0.00051456, "INCLINATION": 1.772, "RA_OF_ASC_NODE": 67.8336, "ARG_OF_PERICENTER": 3.0969, "MEAN_ANOMALY": 154.5255, "EPHEMERIS_TYPE": 0, "CLASSIFICATION_TYPE": "U", "NORAD_CAT_ID": 41586, "ELEMENT_SET_NO": 999, "REV_AT_EPOCH": 508, "BSTAR": 0, "MEAN_MOTION_DOT": -3.3e-06, "MEAN_MOTION_DDOT": 0}, "tle": {"line1": "1 41586U 16037A   25353.07520405 -.00000330  00000+0  00000+0 0  9997", "line2": "2 41586   1.7720  67.8336 0005145   3.0969 154.5255  1.00272235  5080"}}, "geometry": {"type": "Point", "coordinates": [149.95827685338676, 1.7691516365057784]}}, {"type": "Feature", "properties": {"norad_id": 43001, "name": "BEIDOU-3 M1 (C19)", "group": "beidou", "lat": 39.093949875919336, "lon": 101.46866331930181, "alt_km": 21530.834004155557, "timestamp": "2025-12-19T20:43:00.350758+00:00", "meta": {"OBJECT_NAME": "BEIDOU-3 M1 (C19)", "OBJECT_ID": "2017-069A", "EPOCH": "2025-12-18T04:17:57.582816", "MEAN_MOTION": 1.86231385, "ECCENTRICITY": 0.00094787, "INCLINATION": 56.5315, "RA_OF_ASC_NODE": 69.054, "ARG_OF_PERICENTER": 302.4467, "MEAN_ANOMALY": 57.4905, "EPHEMERIS_TYPE": 0, "CLASSIFICATION_TYPE": "U", "NORAD_CAT_ID": 43001, "ELEMENT_SET_NO": 999, "REV_AT_EPOCH": 5523, "BSTAR": 0, "MEAN_MOTION_DOT": -6.5e-07, "MEAN_MOTION_DDOT": 0}, "tle": {"line1": "1 43001U 17069A   25352.17913869 -.00000065  00000+0  00000+0 0  9992", "line2": "2 43001  56.5315  69.0540 0009478 302.4467  57.4905  1.86231385 55235"}}, "geometry": {"type": "Point", "coordinates": [101.46866331930181, 39.093949875919336]}}, {"type": "Feature", "properties": {"norad_id": 43002, "name": "BEIDOU-3 M2 (C20)", "group": "beidou", "lat": 56.554167970574724, "lon": 159.84016987001726, "alt_km": 21530.67417625898, "timestamp": "2025-12-19T20:43:00.350782+00:00", "meta": {"OBJECT_NAME": "BEIDOU-3 M2 (C20)", "OBJECT_ID": "2017-069B", "EPOCH": "2025-12-19T04:35:39.539904", "MEAN_MOTION": 1.86231009, "ECCENTRICITY": 0.00065189, "INCLINATION": 56.532, "RA_OF_ASC_NODE": 69.0565, "ARG_OF_PERICENTER": 330.2695, "MEAN_ANOMALY": 29.7276, "EPHEMERIS_TYPE": 0, "CLASSIFICATION_TYPE": "U", "NORAD_CAT_ID": 43002, "ELEMENT_SET_NO": 999, "REV_AT_EPOCH": 5524, "BSTAR": 0, "MEAN_MOTION_DOT": -5.5e-07, "MEAN_MOTION_DDOT": 0}, "tle": {"line1": "1 43002U 17069B   25353.19142986 -.00000055  00000+0  00000+0 0  9999", "line2": "2 43002  56.5320  69.0565 0006518 330.2695  29.7276  1.86231009 55240"}}, "geometry": {"type": "Point", "coordinates": [159.84016987001726, 56.554167970574724]}}, {"type": "Feature", "properties": {"norad_id": 43107, "name": "BEIDOU-3 M7 (C27)", "group": "beidou", "lat": -53.868116739351535, "lon": -153.7369266235569, "alt_km": 21541.524185648435, "timestamp": "2025-12-19T20:43:00.350796+00:00", "meta": {"OBJECT_NAME": "BEIDOU-3 M7 (C27)", "OBJECT_ID": "2018-003A", "EPOCH": "2025-12-18T09:32:16.089216", "MEAN_MOTION": 1.86232527, "ECCENTRICITY": 0.00028894, "INCLINATION": 54.4914, "RA_OF_ASC_NODE": 308.6174, "ARG_OF_PERICENTER": 69.2572, "MEAN_ANOMALY": 290.7611, "EPHEMERIS_TYPE": 0, "CLASSIFICATION_TYPE": "U", "NORAD_CAT_ID": 43107, "ELEMENT_SET_NO": 999, "REV_AT_EPOCH": 5398, "BSTAR": 0, "MEAN_MOTION_DOT": -8.5e-07, "MEAN_MOTION_DDOT": 0}, "tle": {"line1": "1 43107U 18003A   25352.39740844 -.00000085  00000+0  00000+0 0  9995", "line2": "2 43107  54.4914 308.6174 0002889  69.2572 290.7611  1.86232527 53988"}}, "geometry": {"type": "Point", "coordinates": [-153.7369266235569, -53.868116739351535]}}]}